FORMOSAT 7-5            
1 44358U 19036V   26068.77147620  .00003857  00000+0  30916-3 0  9993
2 44358  23.9972 218.3817 0000871  89.5193 270.5408 14.96027232367445
STARLINK-5825           
1 55783U 23028AU  26068.90277660 -.00001514  00000+0 -11913-3 0  9992
2 55783  70.0011 204.0994 0003201 268.1655  91.9138 14.98334631167058
